MALLIGYONG-1            
1 58400U 23179A   24159.33792948  .00000065  00000+0  59454-5 0  9997
2 58400  97.4047  46.3579 0000802 250.4840 242.0230 15.21324327 30227
